     2.100          NAVIGATION                              RINEX VERSION / TYPE
fic2rin                                 05/30/2012 00:36:36 PGM / RUN BY / DATE
                                                            END OF HEADER
13 12  5 29 14  0  0.0  .204387586564D-03 -.238742359215D-11  .000000000000D+00
     .750000000000D+02 -.199375000000D+02  .421946147179D-08  .309559872130D+01
    -.916421413422D-06  .500317371916D-02  .688992440701D-05  .515366614151D+04
     .223200000000D+06  .113621354103D-06  .956309918535D+00  .162050127983D-06
     .985746997508D+00  .260593750000D+03  .200276529823D+01 -.795711716015D-08
    -.294655130712D-09  .100000000000D+01  .169000000000D+04  .000000000000D+00
     .240000000000D+01  .000000000000D+00 -.111758708954D-07  .750000000000D+02
     .216006000000D+06  .400000000000D+01
14 12  5 29 14  0  0.0  .203926581889D-03  .909494701773D-12  .000000000000D+00
     .550000000000D+02 -.270312500000D+02  .431482258682D-08 -.300567387404D+01
    -.133365392685D-05  .633476662915D-02  .638701021671D-05  .515359405136D+04
     .223200000000D+06  .782310962677D-07  .929591557243D+00 -.158324837685D-06
     .978601122528D+00  .263937500000D+03 -.207096406383D+01 -.799247577584D-08
    -.288940606965D-09  .100000000000D+01  .169000000000D+04  .000000000000D+00
     .240000000000D+01  .000000000000D+00 -.884756445885D-08  .550000000000D+02
     .216006000000D+06  .400000000000D+01
15 12  5 29 14  0  0.0 -.914814881980D-04 -.113686837722D-12  .000000000000D+00
     .800000000000D+02 -.246875000000D+02  .519235913974D-08  .279014214903D+01
    -.124797224998D-05  .438412895892D-02  .552088022232D-05  .515356430435D+04
     .223200000000D+06 -.502914190292D-07  .841701974277D+00  .931322574615D-08
     .945481812918D+00  .266625000000D+03  .558042111894D-01 -.844392315186D-08
    -.290369237901D-09  .100000000000D+01  .169000000000D+04  .000000000000D+00
     .240000000000D+01  .000000000000D+00 -.102445483208D-07  .800000000000D+02
     .216006000000D+06  .400000000000D+01
16 12  5 29 14  0  0.0 -.236484222114D-03 -.125055521494D-11  .000000000000D+00
     .320000000000D+02  .203125000000D+01  .416017328792D-08 -.173463664608D+01
     .931322574615D-07  .664272601716D-02  .605173408985D-05  .515367640495D+04
     .223200000000D+06 -.242143869400D-07  .300150953290D+01 -.335276126862D-07
     .980946504977D+00  .275718750000D+03 -.135643505182D-01 -.799176146037D-08
     .266439669710D-09  .100000000000D+01  .169000000000D+04  .000000000000D+00
     .240000000000D+01  .000000000000D+00 -.977888703346D-08  .320000000000D+02
     .216006000000D+06  .400000000000D+01
17 12  5 29 14  0  0.0  .125156249851D-03 -.284217094304D-11  .000000000000D+00
     .340000000000D+02 -.595312500000D+02  .445625704956D-08 -.269624904578D+01
    -.302493572235D-05  .736029387917D-02  .776350498199D-05  .515368703461D+04
     .223200000000D+06  .484287738800D-07 -.224166613599D+01 -.502914190292D-07
     .962837982730D+00  .229281250000D+03 -.229407883348D+01 -.798568977889D-08
    -.136434254463D-09  .100000000000D+01  .169000000000D+04  .000000000000D+00
     .240000000000D+01  .000000000000D+00 -.107102096081D-07  .340000000000D+02
     .216006000000D+06  .400000000000D+01
18 12  5 29 14  0  0.0  .198008026928D-03  .181898940355D-11  .000000000000D+00
     .700000000000D+02  .648750000000D+02  .548772858592D-08 -.121660510373D+01
     .363960862160D-05  .133421532810D-01  .574253499508D-05  .515369513893D+04
     .223200000000D+06  .221654772758D-06 -.173941996834D+00  .223517417908D-06
     .930001674623D+00  .250062500000D+03 -.217509250707D+01 -.858714340328D-08
     .222509268404D-09  .100000000000D+01  .169000000000D+04  .000000000000D+00
     .240000000000D+01  .000000000000D+00 -.107102096081D-07  .700000000000D+02
     .216006000000D+06  .400000000000D+01
19 12  5 29 14  0  0.0 -.270028132945D-03 -.375166564481D-11  .000000000000D+00
     .780000000000D+02 -.536875000000D+02  .454911806046D-08  .275529396576D+01
    -.274553894997D-05  .837736192625D-02  .797584652901D-05  .515357956314D+04
     .223200000000D+06 -.132247805595D-06 -.218863711405D+01 -.931322574615D-08
     .960175119262D+00  .225718750000D+03  .167718676030D+00 -.803640617715D-08
    -.126433837905D-09  .100000000000D+01  .169000000000D+04  .000000000000D+00
     .240000000000D+01  .000000000000D+00 -.144354999065D-07  .780000000000D+02
     .216006000000D+06  .400000000000D+01
21 12  5 29 14  0  0.0 -.226810108870D-03 -.250111042988D-11  .000000000000D+00
     .390000000000D+02  .731250000000D+01  .522628912449D-08 -.141410898789D+00
     .579282641411D-06  .191681815777D-01  .104326754808D-04  .515360849762D+04
     .223200000000D+06  .149011611938D-07 -.122469105718D+01  .318512320518D-06
     .931106626888D+00  .167781250000D+03 -.224809694686D+01 -.860964434053D-08
     .119647840956D-09  .100000000000D+01  .169000000000D+04  .000000000000D+00
     .240000000000D+01  .000000000000D+00 -.111758708954D-07  .390000000000D+02
     .216006000000D+06  .400000000000D+01
22 12  5 29 14  0  0.0  .144193880260D-03  .341060513165D-12  .000000000000D+00
     .440000000000D+02  .598750000000D+02  .549165732100D-08 -.203141167876D+01
     .307336449623D-05  .611608952750D-02  .568851828575D-05  .515367837906D+04
     .223200000000D+06  .707805156708D-07 -.170570507552D+00  .782310962677D-07
     .927722104469D+00  .248468750000D+03 -.201408997530D+01 -.855464204946D-08
     .256082095419D-09  .100000000000D+01  .169000000000D+04  .000000000000D+00
     .340000000000D+01  .000000000000D+00 -.167638063431D-07  .440000000000D+02
     .216006000000D+06  .400000000000D+01
23 12  5 29 14  0  0.0  .200599897653D-03 -.375166564481D-11  .000000000000D+00
     .910000000000D+02 -.154062500000D+02  .482091509618D-08  .235929385916D+01
    -.750645995140D-06  .791795970872D-02  .653602182865D-05  .515362907219D+04
     .223200000000D+06 -.212341547012D-06  .877451778829D+00  .132247805595D-06
     .960205397278D+00  .256687500000D+03 -.300826047851D+01 -.825927260328D-08
    -.271797035723D-09  .100000000000D+01  .169000000000D+04  .000000000000D+00
     .240000000000D+01  .000000000000D+00 -.200234353542D-07  .910000000000D+02
     .216006000000D+06  .400000000000D+01
24 12  5 29 14  0  0.0 -.809836201370D-04 -.295585778076D-10  .000000000000D+00
     .160000000000D+02 -.575625000000D+02  .511949896197D-08 -.233289363427D+00
    -.300817191601D-05  .894726824481D-02  .628829002380D-05  .515372779655D+04
     .223200000000D+06 -.139698386192D-06 -.235738959040D+01 -.240281224251D-06
     .940351132462D+00  .250625000000D+03 -.983939955746D+00 -.851499754097D-08
    -.121433629627D-09  .100000000000D+01  .169000000000D+04  .000000000000D+00
     .240000000000D+01  .630000000000D+02 -.232830643654D-08  .160000000000D+02
     .216006000000D+06  .400000000000D+01
25 12  5 29 14  0  0.0  .346200540662D-04  .568434188608D-12  .000000000000D+00
     .950000000000D+02  .115625000000D+02  .447268630534D-08 -.671739892891D+00
     .488013029099D-06  .168909679633D-02  .630691647530D-05  .515370684624D+04
     .223200000000D+06  .279396772385D-07  .294928308683D+01  .484287738800D-07
     .968949143067D+00  .260937500000D+03  .683177183929D+00 -.815033949435D-08
     .171078554680D-09  .100000000000D+01  .169000000000D+04  .000000000000D+00
     .240000000000D+01  .000000000000D+00  .558793544769D-08  .950000000000D+02
     .216006000000D+06  .400000000000D+01
26 12  5 29 14  0  0.0 -.388668850064D-03  .977706804406D-11  .000000000000D+00
     .660000000000D+02 -.338750000000D+02  .417374528182D-08  .221043258045D+01
    -.211969017982D-05  .209173831390D-01  .654160976410D-05  .515366325378D+04
     .223200000000D+06  .135973095894D-06  .950244408557D+00 -.378116965294D-06
     .983287889270D+00  .262531250000D+03  .119733509036D+01 -.775746598674D-08
    -.362515100209D-09  .100000000000D+01  .169000000000D+04  .000000000000D+00
     .340000000000D+01  .000000000000D+00 -.605359673500D-08  .660000000000D+02
     .216006000000D+06  .400000000000D+01
27 12  5 29 14  0  0.0  .393034424633D-03  .397903932026D-11  .000000000000D+00
     .108000000000D+03 -.158125000000D+02  .380301555372D-08  .309414676048D+01
    -.566244125366D-06  .216988029424D-01  .104997307062D-04  .515373731613D+04
     .223200000000D+06  .203028321266D-06  .187443511071D+01  .352039933205D-06
     .981856815992D+00  .181375000000D+03 -.107962525361D+01 -.748174021594D-08
    -.503592405216D-10  .100000000000D+01  .169000000000D+04  .000000000000D+00
     .485000000000D+01  .000000000000D+00 -.419095158577D-08  .108000000000D+03
     .216006000000D+06  .400000000000D+01
28 12  5 29 14  0  0.0  .149157829583D-03  .397903932026D-11  .000000000000D+00
     .700000000000D+01  .781250000000D+01  .414517266308D-08 -.210466391492D+01
     .419095158577D-06  .178593042074D-01  .601634383202D-05  .515362673569D+04
     .223200000000D+06  .311061739922D-06  .300823946955D+01 -.707805156708D-07
     .979309350428D+00  .271406250000D+03 -.182792085210D+01 -.775067998979D-08
     .249296098469D-09  .100000000000D+01  .169000000000D+04  .000000000000D+00
     .240000000000D+01  .000000000000D+00 -.107102096081D-07  .700000000000D+01
     .216006000000D+06  .400000000000D+01
31 12  5 29 14  0  0.0  .247324816883D-03  .409272615798D-11  .000000000000D+00
     .600000000000D+02 -.718750000000D+01  .394194991232D-08  .762422427852D+00
    -.560656189919D-06  .777129363269D-02  .893697142601D-05  .515366090965D+04
     .223200000000D+06  .391155481339D-07  .192997176735D+01 -.162050127983D-06
     .980742344518D+00  .219156250000D+03 -.860688471198D+00 -.790604360416D-08
    -.678599694973D-10  .100000000000D+01  .169000000000D+04  .000000000000D+00
     .240000000000D+01  .000000000000D+00 -.130385160446D-07  .600000000000D+02
     .216006000000D+06  .400000000000D+01
